{
    "links": {
        "self": "http://www.neowsapp.com/rest/v1/neo/3943343?api_key=iIulBulltgU6a56xZRHN4H3l9WmuAYTsLGpBGhQ2"
    },
    "id": "3943343",
    "neo_reference_id": "3943343",
    "name": "(2019 YS1)",
    "designation": "2019 YS1",
    "nasa_jpl_url": "http://ssd.jpl.nasa.gov/sbdb.cgi?sstr=3943343",
    "absolute_magnitude_h": 25.7,
    "estimated_diameter": {
        "kilometers": {
            "estimated_diameter_min": 0.0192555078,
            "estimated_diameter_max": 0.0430566244
        },
        "meters": {
            "estimated_diameter_min": 19.2555078188,
            "estimated_diameter_max": 43.0566244241
        },
        "miles": {
            "estimated_diameter_min": 0.0119648141,
            "estimated_diameter_max": 0.0267541378
        },
        "feet": {
            "estimated_diameter_min": 63.1742402722,
            "estimated_diameter_max": 141.2618956756
        }
    },
    "is_potentially_hazardous_asteroid": false,
    "close_approach_data": [
        {
            "close_approach_date": "2019-12-14",
            "close_approach_date_full": "2019-Dec-14 01:48",
            "epoch_date_close_approach": 1576288080000,
            "relative_velocity": {
                "kilometers_per_second": "7.3668639051",
                "kilometers_per_hour": "26520.7100581804",
                "miles_per_hour": "16478.9378692066"
            },
            "miss_distance": {
                "astronomical": "0.0428719667",
                "lunar": "16.6771950463",
                "kilometers": "6413554.901030929",
                "miles": "3985198.2194036602"
            },
            "orbiting_body": "Earth"
        }
    ],
    "orbital_data": {
        "orbit_id": "3",
        "orbit_determination_date": "2020-09-11 07:46:19",
        "first_observation_date": "2019-12-20",
        "last_observation_date": "2020-01-03",
        "data_arc_in_days": 14,
        "observations_used": 41,
        "orbit_uncertainty": "8",
        "minimum_orbit_intersection": ".0368375",
        "jupiter_tisserand_invariant": "3.751",
        "epoch_osculation": "2458839.5",
        "eccentricity": ".4827205730074475",
        "semi_major_axis": "1.937520356121789",
        "inclination": "4.521795771329735",
        "ascending_node_longitude": "95.45193511784281",
        "orbital_period": "985.0716896596874",
        "perihelion_distance": "1.002239419601085",
        "perihelion_argument": "327.3122182323869",
        "aphelion_distance": "2.872801292642492",
        "perihelion_time": "2458816.635677327039",
        "mean_anomaly": "8.355895564422905",
        "mean_motion": ".3654556351369403",
        "equinox": "J2000",
        "orbit_class": {
            "orbit_class_type": "APO",
            "orbit_class_description": "Near-Earth asteroid orbits which cross the Earth’s orbit similar to that of 1862 Apollo",
            "orbit_class_range": "a (semi-major axis) > 1.0 AU; q (perihelion) < 1.017 AU"
        }
    },
    "is_sentry_object": false
}